satname,norad_id,inclination_deg,eccentricity,mean_motion_rev_per_day,perigee_km,apogee_km,l1,l2
STARLINK-1234,45190,53.0342,0.0004049,15.87250158,307.2883000882057,312.7043504550111,1 45190U 20012N   26202.52751122  .00148070  00000+0  54692-3 0  9999,2 45190  53.0342  20.5178 0004049 290.2911  69.7677 15.87250158356943
STARLINK-1269,45197,53.1537,0.0003368,15.3836041,448.65728876943285,453.25736670859715,1 45197U 20012V   26202.10267033  .00032110  00000+0  84319-3 0  9999,2 45197  53.1537 136.8366 0003368  62.8260 297.3088 15.38360410355381
STARLINK-1154,45198,53.0403,0.0003884,15.67109692,364.5582434540456,369.7980042422514,1 45198U 20012W   26202.38974202  .00039219  00000+0  36352-3 0  9994,2 45198  53.0403  80.8052 0003884 109.9149 250.2285 15.67109692356131
STARLINK-1199,45201,53.1534,0.000547,15.38389667,447.1352766982418,454.6062111701058,1 45201U 20012Z   26202.46408797  .00038535  00000+0  10078-2 0  9995,2 45201  53.1534 119.4115 0005470  65.7743 294.3833 15.38389667355680
STARLINK-1209,45206,53.035,0.0001723,15.75427696,342.25627480055664,344.57252141234494,1 45206U 20012AE  26202.25314085  .00062405  00000+0  40486-3 0  9993,2 45206  53.0350  39.7942 0001723 267.1207  92.9615 15.75427696355802
STARLINK-1231,45212,53.0354,0.0002776,15.30410001,472.68579949483956,476.490432479236,1 45212U 20012AL  26202.14177476  .00020250  00000+0  68941-3 0  9997,2 45212  53.0354 117.9971 0002776 110.7561 249.3736 15.30410001355602
STARLINK-1271,45217,53.1541,0.0005127,15.38539746,446.9256354281815,453.92764458464535,1 45217U 20012AR  26202.06659684  .00029656  00000+0  77509-3 0  9998,2 45217  53.1541 121.3468 0005127  67.6336 292.5212 15.38539746355626
STARLINK-1191,45222,53.152,0.0003178,15.43082466,434.85234377192774,439.18405641710706,1 45222U 20012AW  26201.99283220  .00039271  00000+0  87961-3 0  9991,2 45222  53.1520  93.3816 0003178  45.0996 315.0268 15.43082466356014
STARLINK-1212,45223,53.0387,0.0001314,15.7410881,346.28465734401743,348.052067593273,1 45223U 20012AX  26202.59606940  .00074032  00000+0  50703-3 0  9995,2 45223  53.0387  53.7991 0001314 242.5673 117.5212 15.74108810356598
STARLINK-1215,45225,53.1533,0.0005071,15.3864342,446.65728779994606,453.5825059447552,1 45225U 20012AZ  26201.99732361  .00032243  00000+0  83872-3 0  9998,2 45225  53.1533  95.8976 0005071  72.1490 288.0068 15.38643420355933
STARLINK-1221,45227,53.0654,0.0002861,15.46696788,424.45017772701794,428.34373205600696,1 45227U 20012BB  26202.43052280  .00014368  00000+0  29098-3 0  9993,2 45227  53.0654 353.6478 0002861  75.8215 284.3109 15.46696788357378
STARLINK-1222,45228,53.0521,8.38e-05,15.60033635,386.9928660543628,388.12679684331397,1 45228U 20012BC  26202.66668981  .00061537  00000+0  74713-3 0  9994,2 45228  53.0521  56.3226 0000838  82.1884 262.1959 15.60033635  5891
STARLINK-1226,45229,53.1527,0.0004599,15.48570287,417.7807703125882,424.0345315825298,1 45229U 20012BD  26201.95841238  .00041353  00000+0  76698-3 0  9992,2 45229  53.1527  89.2315 0004599  72.1786 287.9724 15.48570287355967
STARLINK-1227,45230,53.1505,0.0004287,15.48663625,417.71982913650845,423.5490957884231,1 45230U 20012BE  26202.41750198  .00041831  00000+0  77322-3 0  9996,2 45230  53.1505  87.1095 0004287  68.2913 291.8552 15.48663625356153
STARLINK-1246,45235,53.153,0.0005264,15.38629399,446.56696291207845,453.7557954456788,1 45235U 20012BK  26202.10518239  .00031709  00000+0  82539-3 0  9994,2 45235  53.1530 136.4073 0005264  34.4184 325.7160 15.38629399355443
STARLINK-1270,45237,53.0382,0.0001001,15.72966109,349.75156090708697,351.0986190375006,1 45237U 20012BM  26201.90110655  .00052733  00000+0  38150-3 0  9993,2 45237  53.0382  59.2494 0001001 223.4930 136.6009 15.72966109356456
STARLINK-1279,45360,53.0299,0.0003215,15.88809449,303.47086496511474,307.76852051854803,1 45360U 20019A   26202.59442836  .00173891  00000+0  59244-3 0  9998,2 45360  53.0299 154.5212 0003215  73.2901 286.8476 15.88809449351737
STARLINK-1301,45361,53.0301,0.0005322,15.9035791,297.7257506536853,304.8353226797135,1 45361U 20019B   26202.12638890  .00141850  18447-4  46438-3 0  9995,2 45361  53.0301 158.7193 0005322  69.2979 290.8616 15.90357910351642
STARLINK-1262,45366,53.1525,0.0002712,15.37567645,451.4518120482571,455.15718591730547,1 45366U 20019G   26202.55989411  .00019231  00000+0  52322-3 0  9992,2 45366  53.1525 261.0297 0002712 322.2555  37.8258 15.37567645350280
STARLINK-1273,45367,53.0404,0.0003088,15.63221804,376.27126681664595,380.44407792630227,1 45367U 20019H   26202.50670419  .00069899  00000+0  74874-3 0  9994,2 45367  53.0404 228.8369 0003088  14.5357 345.5745 15.63221804350705
STARLINK-1276,45368,53.0696,6.58e-05,15.16290576,516.6095568394003,517.5169651937495,1 45368U 20019J   26202.60619969  .00022558  00000+0  11632-2 0  9992,2 45368  53.0696 279.0883 0000658  40.8125 319.2918 15.16290576350017
STARLINK-1277,45369,53.0388,0.0003842,15.71423775,352.24023514411147,357.41384471239235,1 45369U 20019K   26202.35299595  .00054716  00000+0  42211-3 0  9993,2 45369  53.0388 220.9231 0003842  38.9443 321.1850 15.71423775350801
STARLINK-1281,45370,53.1555,0.0002073,15.38396068,449.4361516624058,452.26745041931736,1 45370U 20019L   26202.35310086  .00031357  00000+0  82285-3 0  9995,2 45370  53.1555 261.3892 0002073 323.8978  36.1886 15.38396068350265
STARLINK-1300,45374,53.1562,0.0002327,15.39086366,447.2210976689021,450.3983586761933,1 45374U 20019Q   26202.34823850  .00019603  00000+0  50753-3 0  9991,2 45374  53.1562 261.1346 0002327 325.6784  34.4069 15.39086366350268
STARLINK-1302,45375,53.0422,0.0001143,15.71629663,353.46949142622543,355.0085125802825,1 45375U 20019R   26202.32145274  .00045817  00000+0  35163-3 0  9991,2 45375  53.0422 216.8650 0001143  52.4845 307.6276 15.71629663350855
STARLINK-1304,45376,53.0393,0.0001876,15.67132623,365.8469145610179,368.37773210713294,1 45376U 20019S   26202.43995246  .00037038  00000+0  34344-3 0  9992,2 45376  53.0393 218.9214 0001876   2.0431 358.0592 15.67132623350836
STARLINK-1305,45377,53.0363,0.0007352,15.77181859,333.4915870957948,343.3676266345292,1 45377U 20019T   26202.27006477  .00069095  00000+0  41368-3 0  9996,2 45377  53.0363 195.3891 0007352  40.7504 319.4065 15.77181859351156
STARLINK-1319,45379,53.0327,0.0003945,15.85725682,311.6420126022167,316.9223313288976,1 45379U 20019V   26202.48334430  .00126647  00000+0  50555-3 0  9999,2 45379  53.0327 183.7071 0003945  56.4426 303.6973 15.85725682351330
STARLINK-1266,45383,53.0423,0.0005001,15.69726847,356.30895963349667,363.04812273779044,1 45383U 20019Z   26202.25904659  .00042667  00000+0  35476-3 0  9999,2 45383  53.0423 203.9821 0005001  34.0395 326.0941 15.69726847351028
STARLINK-1267,45384,53.0412,0.0003081,15.74654992,343.5415335870348,347.68470841159433,1 45384U 20019AA  26202.40080820  .00061143  00000+0  41029-3 0  9993,2 45384  53.0412 193.5637 0003081  55.1947 304.9361 15.74654992351184
STARLINK-1272,45386,53.0365,0.0002949,15.80066882,328.2730203214196,332.2296277549385,1 45386U 20019AC  26202.60966111  .00099750  00000+0  52185-3 0  9993,2 45386  53.0365 169.7802 0002949  76.8011 283.3339 15.80066882351532
STARLINK-1274,45387,53.0153,0.0005396,15.70385507,354.1596923263096,361.4291094941709,1 45387U 20019AD  26202.32451763  .00107179  00000+0  85321-3 0  9998,2 45387  53.0153 173.3178 0005396 359.6447   0.4565 15.70385507351456
STARLINK-1280,45388,53.0282,0.000536,15.94968428,284.8290937768488,291.97562396956073,1 45388U 20019AE  26202.66668981  .00236705  32939-4  60282-3 0  9996,2 45388  53.0282 172.9501 0005360  65.2991 180.1141 15.94968428  5985
STARLINK-1283,45389,53.0329,0.0003364,15.77160869,336.22972630398,340.7486724109067,1 45389U 20019AF  26202.21234453  .00054526  00000+0  32856-3 0  9995,2 45389  53.0329 171.1834 0003364  39.0793 321.0469 15.77160869351481
STARLINK-1284,45390,53.0391,0.0002976,15.75128874,342.2638937958627,346.2650671570418,1 45390U 20019AG  26202.28040045  .00066349  00000+0  43556-3 0  9991,2 45390  53.0391 195.3269 0002976  53.3984 306.7308 15.75128874351144
STARLINK-1297,45395,53.0383,0.0003834,15.78424869,332.3291657266036,337.476724756616,1 45395U 20019AM  26202.50344664  .00085516  00000+0  48314-3 0  9999,2 45395  53.0383 192.7268 0003834  55.2666 304.8715 15.78424869350384
STARLINK-1307,45397,53.051,0.0001001,15.59482391,388.4766853986421,389.8314970751089,1 45397U 20019AP  26202.30247766  .00036784  00000+0  45999-3 0  9993,2 45397  53.0510 204.8017 0001001  61.3381 298.7732 15.59482391350845
STARLINK-1255,45399,53.0308,0.0001741,15.69620589,358.80951599625314,361.15572924884964,1 45399U 20019AR  26202.33335648  .00056199  00000+0  46724-3 0  9994,2 45399  53.0308 169.3581 0001741  11.0670  14.1962 15.69620589  5876
STARLINK-1260,45404,53.1531,0.0001946,15.41760198,439.5872678254309,442.24124257395397,1 45404U 20019AW  26202.43581597  .00028937  00000+0  68088-3 0  9994,2 45404  53.1531 222.7164 0001946 338.4672  21.6252 15.41760198350529
STARLINK-1263,45405,53.1537,0.0003708,15.38671779,447.5041097669182,452.56788286098526,1 45405U 20019AX  26202.55534458  .00034499  00000+0  89573-3 0  9994,2 45405  53.1537 224.3418 0003708 338.9863  21.0989 15.38671779350513
STARLINK-1265,45406,53.1527,0.0002924,15.42177699,437.68995875987275,441.6770201821146,1 45406U 20019AY  26202.35209310  .00038861  00000+0  89733-3 0  9994,2 45406  53.1527 222.9755 0002924  11.7238 348.3835 15.42177699350514
STARLINK-1278,45408,53.0361,0.0003051,15.79626621,329.4506291010084,333.5448482185384,1 45408U 20019BA  26202.24634333  .00072601  00000+0  38972-3 0  9990,2 45408  53.0361 192.5855 0003051  59.6500 300.4822 15.79626621350901
STARLINK-1296,45412,53.1534,0.0002035,15.42310376,437.9051356970649,440.67982949648285,1 45412U 20019BE  26202.45156097  .00030792  00000+0  71060-3 0  9994,2 45412  53.1534 222.1421 0002035 354.0922   6.0060 15.42310376350538
